STARLINK-36919          
1 68053U 26041P   26087.83335647 -.00125934  00000+0 -82757-3 0  9994
2 68053  53.1589 326.1572 0000663  81.8410  34.3875 15.75296387  5455
STARLINK-36924          
1 68054U 26041Q   26087.85373646  .00509490  00000+0  30910-2 0  9992
2 68054  53.1594 326.5310 0000588 228.0480 132.0490 15.75537243  4248
STARLINK-35998          
1 68055U 26041R   26087.64037330  .00319593  00000+0  20023-2 0  9994
2 68055  53.1581 327.3224 0002099 105.6472 254.4780 15.75341623  4211
STARLINK-36845          
1 68056U 26041S   26087.82617013  .00406986  00000+0  25177-2 0  9995
2 68056  53.1599 326.3463 0001487 178.8549 181.2475 15.75382212  4242
STARLINK-36954          
1 68057U 26041T   26087.85341007  .00297190  00000+0  18759-2 0  9999
2 68057  53.1604 326.5271 0001018  46.5811 313.5294 15.75234199  4241
STARLINK-36899          
1 68058U 26041U   26087.84921157  .00517159  00000+0  31381-2 0  9995
2 68058  53.1599 326.4995 0000972 175.0928 185.0102 15.75512461  4243
STARLINK-36917          
1 68059U 26041V   26087.83335647 -.00104162  00000+0 -68221-3 0  9990
2 68059  53.1574 326.4690 0001025 104.7398 218.8339 15.75289295  5456
STARLINK-36959          
1 68060U 26041W   26087.84465646  .00294904  00000+0  18556-2 0  9993
2 68060  53.1586 326.4676 0000758  18.1905 341.9143 15.75313678  4249
STARLINK-36915          
1 68061U 26041X   26087.69960931  .00290451  00000+0  18259-2 0  9997
2 68061  53.1596 326.9777 0000946  97.8198 262.2930 15.75347101  4220
STARLINK-36952          
1 68062U 26041Y   26087.84887064  .00278490  00000+0  17477-2 0  9990
2 68062  53.1600 326.4970 0000810 159.8291 200.2762 15.75421590  4242
STARLINK-37000          
1 68063U 26041Z   26087.83075123  .03303728  00000+0  16792-1 0  9999
2 68063  53.1592 326.3753 0010230 223.2478 136.7741 15.77558759  4241
STARLINK-36996          
1 68064U 26041AA  26087.83335647 -.00046918  00000+0 -30368-3 0  9991
2 68064  53.1588 326.1023 0001059  92.8335  49.1933 15.75232351  5455
STARLINK-36836          
1 68065U 26041AB  26087.83335647 -.00136032  00000+0 -89719-3 0  9993
2 68065  53.1587 326.0984 0000996  97.5397  46.4232 15.75248255  5451
STARLINK-36976          
1 68066U 26041AC  26087.07877066  .00350279  00000+0  21932-2 0  9997
2 68066  53.1584 330.2201 0001213  57.8964 302.2174 15.75266996  4123
STARLINK-36929          
1 68067U 26041AD  26087.84434567  .00379885  00000+0  23613-2 0  9990
2 68067  53.1583 326.4649 0000968   1.8852 358.2171 15.75348971  4242
STARLINK-36990          
1 68068U 26041AE  26087.85897962  .00486263  00000+0  23280-2 0  9993
2 68068  53.1584 325.8255 0001035  58.7391 301.3733 15.80901451  4253
STARLINK-36766          
1 68069U 26042A   26087.53562041  .00193851  00000+0  95950-3 0  9999
2 68069  53.1581 100.3296 0001076  70.3707 289.7432 15.80970026  5067
