[{"OBJECT_NAME":"STARLINK-36919","OBJECT_ID":"2026-041P","EPOCH":"2026-03-28T20:00:01.999008","MEAN_MOTION":15.75296387,"ECCENTRICITY":6.63e-5,"INCLINATION":53.1589,"RA_OF_ASC_NODE":326.1572,"ARG_OF_PERICENTER":81.841,"MEAN_ANOMALY":34.3875,"EPHEMERIS_TYPE":0,"CLASSIFICATION_TYPE":"U","NORAD_CAT_ID":68053,"ELEMENT_SET_NO":999,"REV_AT_EPOCH":545,"BSTAR":-0.00082757,"MEAN_MOTION_DOT":-0.00125934,"MEAN_MOTION_DDOT":0},{"OBJECT_NAME":"STARLINK-36924","OBJECT_ID":"2026-041Q","EPOCH":"2026-03-28T20:29:22.830144","MEAN_MOTION":15.75537243,"ECCENTRICITY":5.88e-5,"INCLINATION":53.1594,"RA_OF_ASC_NODE":326.531,"ARG_OF_PERICENTER":228.048,"MEAN_ANOMALY":132.049,"EPHEMERIS_TYPE":0,"CLASSIFICATION_TYPE":"U","NORAD_CAT_ID":68054,"ELEMENT_SET_NO":999,"REV_AT_EPOCH":424,"BSTAR":0.003091,"MEAN_MOTION_DOT":0.0050949,"MEAN_MOTION_DDOT":0},{"OBJECT_NAME":"STARLINK-35998","OBJECT_ID":"2026-041R","EPOCH":"2026-03-28T15:22:08.253120","MEAN_MOTION":15.75341623,"ECCENTRICITY":0.0002099,"INCLINATION":53.1581,"RA_OF_ASC_NODE":327.3224,"ARG_OF_PERICENTER":105.6472,"MEAN_ANOMALY":254.478,"EPHEMERIS_TYPE":0,"CLASSIFICATION_TYPE":"U","NORAD_CAT_ID":68055,"ELEMENT_SET_NO":999,"REV_AT_EPOCH":421,"BSTAR":0.0020023,"MEAN_MOTION_DOT":0.00319593,"MEAN_MOTION_DDOT":0},{"OBJECT_NAME":"STARLINK-36845","OBJECT_ID":"2026-041S","EPOCH":"2026-03-28T19:49:41.099232","MEAN_MOTION":15.75382212,"ECCENTRICITY":0.0001487,"INCLINATION":53.1599,"RA_OF_ASC_NODE":326.3463,"ARG_OF_PERICENTER":178.8549,"MEAN_ANOMALY":181.2475,"EPHEMERIS_TYPE":0,"CLASSIFICATION_TYPE":"U","NORAD_CAT_ID":68056,"ELEMENT_SET_NO":999,"REV_AT_EPOCH":424,"BSTAR":0.0025177,"MEAN_MOTION_DOT":0.00406986,"MEAN_MOTION_DDOT":0},{"OBJECT_NAME":"STARLINK-36954","OBJECT_ID":"2026-041T","EPOCH":"2026-03-28T20:28:54.630048","MEAN_MOTION":15.75234199,"ECCENTRICITY":0.0001018,"INCLINATION":53.1604,"RA_OF_ASC_NODE":326.5271,"ARG_OF_PERICENTER":46.5811,"MEAN_ANOMALY":313.5294,"EPHEMERIS_TYPE":0,"CLASSIFICATION_TYPE":"U","NORAD_CAT_ID":68057,"ELEMENT_SET_NO":999,"REV_AT_EPOCH":424,"BSTAR":0.0018759,"MEAN_MOTION_DOT":0.0029719,"MEAN_MOTION_DDOT":0},{"OBJECT_NAME":"STARLINK-36899","OBJECT_ID":"2026-041U","EPOCH":"2026-03-28T20:22:51.879648","MEAN_MOTION":15.75512461,"ECCENTRICITY":9.72e-5,"INCLINATION":53.1599,"RA_OF_ASC_NODE":326.4995,"ARG_OF_PERICENTER":175.0928,"MEAN_ANOMALY":185.0102,"EPHEMERIS_TYPE":0,"CLASSIFICATION_TYPE":"U","NORAD_CAT_ID":68058,"ELEMENT_SET_NO":999,"REV_AT_EPOCH":424,"BSTAR":0.0031381,"MEAN_MOTION_DOT":0.00517159,"MEAN_MOTION_DDOT":0},{"OBJECT_NAME":"STARLINK-36917","OBJECT_ID":"2026-041V","EPOCH":"2026-03-28T20:00:01.999008","MEAN_MOTION":15.75289295,"ECCENTRICITY":0.0001025,"INCLINATION":53.1574,"RA_OF_ASC_NODE":326.469,"ARG_OF_PERICENTER":104.7398,"MEAN_ANOMALY":218.8339,"EPHEMERIS_TYPE":0,"CLASSIFICATION_TYPE":"U","NORAD_CAT_ID":68059,"ELEMENT_SET_NO":999,"REV_AT_EPOCH":545,"BSTAR":-0.00068221,"MEAN_MOTION_DOT":-0.00104162,"MEAN_MOTION_DDOT":0},{"OBJECT_NAME":"STARLINK-36959","OBJECT_ID":"2026-041W","EPOCH":"2026-03-28T20:16:18.318144","MEAN_MOTION":15.75313678,"ECCENTRICITY":7.58e-5,"INCLINATION":53.1586,"RA_OF_ASC_NODE":326.4676,"ARG_OF_PERICENTER":18.1905,"MEAN_ANOMALY":341.9143,"EPHEMERIS_TYPE":0,"CLASSIFICATION_TYPE":"U","NORAD_CAT_ID":68060,"ELEMENT_SET_NO":999,"REV_AT_EPOCH":424,"BSTAR":0.0018556,"MEAN_MOTION_DOT":0.00294904,"MEAN_MOTION_DDOT":0},{"OBJECT_NAME":"STARLINK-36915","OBJECT_ID":"2026-041X","EPOCH":"2026-03-28T16:47:26.244384","MEAN_MOTION":15.75347101,"ECCENTRICITY":9.46e-5,"INCLINATION":53.1596,"RA_OF_ASC_NODE":326.9777,"ARG_OF_PERICENTER":97.8198,"MEAN_ANOMALY":262.293,"EPHEMERIS_TYPE":0,"CLASSIFICATION_TYPE":"U","NORAD_CAT_ID":68061,"ELEMENT_SET_NO":999,"REV_AT_EPOCH":422,"BSTAR":0.0018259,"MEAN_MOTION_DOT":0.00290451,"MEAN_MOTION_DDOT":0},{"OBJECT_NAME":"STARLINK-36952","OBJECT_ID":"2026-041Y","EPOCH":"2026-03-28T20:22:22.423296","MEAN_MOTION":15.7542159,"ECCENTRICITY":8.1e-5,"INCLINATION":53.16,"RA_OF_ASC_NODE":326.497,"ARG_OF_PERICENTER":159.8291,"MEAN_ANOMALY":200.2762,"EPHEMERIS_TYPE":0,"CLASSIFICATION_TYPE":"U","NORAD_CAT_ID":68062,"ELEMENT_SET_NO":999,"REV_AT_EPOCH":424,"BSTAR":0.0017477,"MEAN_MOTION_DOT":0.0027849,"MEAN_MOTION_DDOT":0},{"OBJECT_NAME":"STARLINK-37000","OBJECT_ID":"2026-041Z","EPOCH":"2026-03-28T19:56:16.906272","MEAN_MOTION":15.77558759,"ECCENTRICITY":0.001023,"INCLINATION":53.1592,"RA_OF_ASC_NODE":326.3753,"ARG_OF_PERICENTER":223.2478,"MEAN_ANOMALY":136.7741,"EPHEMERIS_TYPE":0,"CLASSIFICATION_TYPE":"U","NORAD_CAT_ID":68063,"ELEMENT_SET_NO":999,"REV_AT_EPOCH":424,"BSTAR":0.016792,"MEAN_MOTION_DOT":0.03303728,"MEAN_MOTION_DDOT":0},{"OBJECT_NAME":"STARLINK-36996","OBJECT_ID":"2026-041AA","EPOCH":"2026-03-28T20:00:01.999008","MEAN_MOTION":15.75232351,"ECCENTRICITY":0.0001059,"INCLINATION":53.1588,"RA_OF_ASC_NODE":326.1023,"ARG_OF_PERICENTER":92.8335,"MEAN_ANOMALY":49.1933,"EPHEMERIS_TYPE":0,"CLASSIFICATION_TYPE":"U","NORAD_CAT_ID":68064,"ELEMENT_SET_NO":999,"REV_AT_EPOCH":545,"BSTAR":-0.00030368,"MEAN_MOTION_DOT":-0.00046918,"MEAN_MOTION_DDOT":0},{"OBJECT_NAME":"STARLINK-36836","OBJECT_ID":"2026-041AB","EPOCH":"2026-03-28T20:00:01.999008","MEAN_MOTION":15.75248255,"ECCENTRICITY":9.96e-5,"INCLINATION":53.1587,"RA_OF_ASC_NODE":326.0984,"ARG_OF_PERICENTER":97.5397,"MEAN_ANOMALY":46.4232,"EPHEMERIS_TYPE":0,"CLASSIFICATION_TYPE":"U","NORAD_CAT_ID":68065,"ELEMENT_SET_NO":999,"REV_AT_EPOCH":545,"BSTAR":-0.00089719,"MEAN_MOTION_DOT":-0.00136032,"MEAN_MOTION_DDOT":0},{"OBJECT_NAME":"STARLINK-36976","OBJECT_ID":"2026-041AC","EPOCH":"2026-03-28T01:53:25.785024","MEAN_MOTION":15.75266996,"ECCENTRICITY":0.00012135,"INCLINATION":53.1584,"RA_OF_ASC_NODE":330.2201,"ARG_OF_PERICENTER":57.8964,"MEAN_ANOMALY":302.2174,"EPHEMERIS_TYPE":0,"CLASSIFICATION_TYPE":"U","NORAD_CAT_ID":68066,"ELEMENT_SET_NO":999,"REV_AT_EPOCH":412,"BSTAR":0.0021931719,"MEAN_MOTION_DOT":0.00350279,"MEAN_MOTION_DDOT":0},{"OBJECT_NAME":"STARLINK-36929","OBJECT_ID":"2026-041AD","EPOCH":"2026-03-28T20:15:51.465888","MEAN_MOTION":15.75348971,"ECCENTRICITY":9.68e-5,"INCLINATION":53.1583,"RA_OF_ASC_NODE":326.4649,"ARG_OF_PERICENTER":1.8852,"MEAN_ANOMALY":358.2171,"EPHEMERIS_TYPE":0,"CLASSIFICATION_TYPE":"U","NORAD_CAT_ID":68067,"ELEMENT_SET_NO":999,"REV_AT_EPOCH":424,"BSTAR":0.0023613,"MEAN_MOTION_DOT":0.00379885,"MEAN_MOTION_DDOT":0},{"OBJECT_NAME":"STARLINK-36990","OBJECT_ID":"2026-041AE","EPOCH":"2026-03-28T20:36:55.839168","MEAN_MOTION":15.80901451,"ECCENTRICITY":0.0001035,"INCLINATION":53.1584,"RA_OF_ASC_NODE":325.8255,"ARG_OF_PERICENTER":58.7391,"MEAN_ANOMALY":301.3733,"EPHEMERIS_TYPE":0,"CLASSIFICATION_TYPE":"U","NORAD_CAT_ID":68068,"ELEMENT_SET_NO":999,"REV_AT_EPOCH":425,"BSTAR":0.002328,"MEAN_MOTION_DOT":0.00486263,"MEAN_MOTION_DDOT":0},{"OBJECT_NAME":"STARLINK-36766","OBJECT_ID":"2026-042A","EPOCH":"2026-03-28T12:51:17.603424","MEAN_MOTION":15.80970026,"ECCENTRICITY":0.00010767,"INCLINATION":53.1581,"RA_OF_ASC_NODE":100.3296,"ARG_OF_PERICENTER":70.3707,"MEAN_ANOMALY":289.7432,"EPHEMERIS_TYPE":0,"CLASSIFICATION_TYPE":"U","NORAD_CAT_ID":68069,"ELEMENT_SET_NO":999,"REV_AT_EPOCH":506,"BSTAR":0.00095949795,"MEAN_MOTION_DOT":0.00193851,"MEAN_MOTION_DDOT":0}]
